{
  "norad_id": 66251,
  "name": "STARLINK-35485",
  "history": [
    {
      "epoch": "2026-03-28T17:35:53.187936",
      "apogee_km": 475.83930735634476,
      "perigee_km": 474.4835878574404,
      "latitude_deg": 52.99959576309651,
      "longitude_deg": 155.49243104015477,
      "semi_major_axis_km": 6853.298447606892,
      "eccentricity": 9.891e-05,
      "inclination_deg": 53.1588,
      "raan_deg": 195.3336,
      "arg_perigee_deg": 63.7236,
      "mean_anomaly_deg": 296.3866,
      "mean_motion_rev_day": 15.30217959
    },
    {
      "epoch": "2026-03-28T23:52:06.203136",
      "apogee_km": 476.1784982582012,
      "perigee_km": 474.2157033717285,
      "latitude_deg": -23.351083010928203,
      "longitude_deg": -179.42644096002914,
      "semi_major_axis_km": 6853.334100814965,
      "eccentricity": 0.0001432,
      "inclination_deg": 53.1586,
      "raan_deg": 194.1156,
      "arg_perigee_deg": 70.076,
      "mean_anomaly_deg": 290.0395,
      "mean_motion_rev_day": 15.30206018
    }
  ]
}